NORAD_CAT_ID,OBJECT_NAME,OBJECT_TYPE,EPOCH,MEAN_MOTION,ECCENTRICITY,INCLINATION,RA_OF_ASC_NODE,ARG_OF_PERICENTER,MEAN_ANOMALY,BSTAR,MEAN_MOTION_DOT,MEAN_MOTION_DDOT,TLE_LINE0,TLE_LINE1,TLE_LINE2,SEMIMAJOR_AXIS,PERIOD,APOGEE,PERIGEE,DECAYED
55945.0,STARLINK-5925,PAYLOAD,2023-05-19 00:54:21,15.69928623,0.0003254,69.9989,5.997,250.2915,109.7929,1.0096e-05,1.002e-05,0.0,0 STARLINK-5925,1 55945U 23037AH  23139.03774911  .00001002  00000-0  10096-4 0  9996,2 55945  69.9989   5.9970 0003254 250.2915 109.7929 15.69928623 10300,6737.238,91.724,361.296,356.911,0.0
55945.0,STARLINK-5925,PAYLOAD,2023-05-19 19:15:23,15.69926564,0.000372,69.9977,3.8443,260.3198,99.7578,6.1231e-06,5.23e-06,0.0,0 STARLINK-5925,1 55945U 23037AH  23139.80235145  .00000523  00000-0  61231-5 0  9997,2 55945  69.9977   3.8443 0003720 260.3198  99.7578 15.69926564 10087,6737.244,91.724,361.615,356.603,0.0
55945.0,STARLINK-5925,PAYLOAD,2023-05-19 23:50:38,15.69910852,0.0003372,69.998,3.3065,263.252,96.8292,6.1248e-05,7.154e-05,0.0,0 STARLINK-5925,1 55945U 23037AH  23139.99350500  .00007154  00000-0  61248-4 0  9994,2 55945  69.9980   3.3065 0003372 263.2520  96.8292 15.69910852 10455,6737.289,91.725,361.426,356.882,0.0
55945.0,STARLINK-5925,PAYLOAD,2023-05-20 16:39:54,15.69936969,0.0003625,69.9979,1.3369,269.7592,90.3188,1.7146e-05,1.85e-05,0.0,0 STARLINK-5925,1 55945U 23037AH  23140.69437539  .00001850  00000-0  17146-4 0  9996,2 55945  69.9979   1.3369 0003625 269.7592  90.3188 15.69936969 10561,6737.214,91.723,361.522,356.637,0.0
55945.0,STARLINK-5925,PAYLOAD,2023-05-20 18:11:38,15.69936983,0.0004046,69.9963,1.1595,254.8102,105.2647,1.5611e-05,1.665e-05,0.0,0 STARLINK-5925,1 55945U 23037AH  23140.75808897  .00001665  00000-0  15611-4 0  9991,2 55945  69.9963   1.1595 0004046 254.8102 105.2647 15.69936983 10239,6737.214,91.723,361.805,356.353,0.0
55945.0,STARLINK-5925,PAYLOAD,2023-05-21 00:18:42,15.69891589,0.0003202,69.9981,0.441,276.285,83.7981,-3.5042e-05,-4.418e-05,0.0,0 STARLINK-5925,1 55945U 23037AH  23141.01299600 -.00004418  00000-0 -35042-4 0  9998,2 55945  69.9981   0.4410 0003202 276.2850  83.7981 15.69891589 10613,6737.344,91.726,361.366,357.052,0.0
55945.0,STARLINK-5925,PAYLOAD,2023-05-21 15:36:12,15.69916672,0.0003408,69.9958,358.65,265.8393,94.2413,-7.8391e-06,-1.155e-05,0.0,0 STARLINK-5925,1 55945U 23037AH  23141.65014625 -.00001155  00000-0 -78391-5 0  9990,2 55945  69.9958 358.6500 0003408 265.8393  94.2413 15.69916672 10718,6737.272,91.725,361.433,356.841,0.0
55945.0,STARLINK-5925,PAYLOAD,2023-05-21 18:39:41,15.69937765,0.000381,69.9968,358.2926,270.5352,89.5407,1.637e-05,1.757e-05,0.0,0 STARLINK-5925,1 55945U 23037AH  23141.77756271  .00001757  00000-0  16370-4 0  9997,2 55945  69.9968 358.2926 0003810 270.5352  89.5407 15.69937765 10392,6737.212,91.723,361.644,356.51,0.0
55945.0,STARLINK-5925,PAYLOAD,2023-05-21 23:14:56,15.69938453,0.0003335,69.9973,357.752,267.9575,92.1238,1.5074e-05,1.601e-05,0.0,0 STARLINK-5925,1 55945U 23037AH  23141.96871260  .00001601  00000-0  15074-4 0  9992,2 55945  69.9973 357.7520 0003335 267.9575  92.1238 15.69938453 10769,6737.21,91.723,361.322,356.828,0.0
55945.0,STARLINK-5925,PAYLOAD,2023-05-22 16:04:13,15.69920237,0.0003115,69.9979,355.7826,268.0994,91.9845,2.3246e-05,2.583e-05,0.0,0 STARLINK-5925,1 55945U 23037AH  23142.66960438  .00002583  00000-0  23246-4 0  9996,2 55945  69.9979 355.7826 0003115 268.0994  91.9845 15.69920237 10879,6737.262,91.724,361.226,357.029,0.0
55945.0,STARLINK-5925,PAYLOAD,2023-05-22 19:07:44,15.69920011,0.0003439,69.9983,355.4246,271.3571,88.723,1.5899e-05,1.699e-05,0.0,0 STARLINK-5925,1 55945U 23037AH  23142.79704033  .00001699  00000-0  15899-4 0  9999,2 55945  69.9983 355.4246 0003439 271.3571  88.7230 15.69920011 10551,6737.263,91.724,361.445,356.811,0.0
55945.0,STARLINK-5925,PAYLOAD,2023-05-23 18:04:01,15.69926495,0.00034,69.9969,352.7369,273.629,86.4516,-2.6811e-06,-5.35e-06,0.0,0 STARLINK-5925,1 55945U 23037AH  23143.75279306 -.00000535  00000-0 -26811-5 0  9993,2 55945  69.9969 352.7369 0003400 273.6290  86.4516 15.69926495 11041,6737.244,91.724,361.4,356.819,0.0
55945.0,STARLINK-5925,PAYLOAD,2023-05-24 00:11:01,15.69935893,0.000362,69.9971,352.0218,273.1537,86.9244,6.096e-06,5.2e-06,0.0,0 STARLINK-5925,1 55945U 23037AH  23144.00765101  .00000520  00000-0  60960-5 0  9990,2 55945  69.9971 352.0218 0003620 273.1537  86.9244 15.69935893 11082,6737.217,91.723,361.521,356.644,0.0
55945.0,STARLINK-5925,PAYLOAD,2023-05-24 15:28:33,15.69918759,0.0003612,69.9974,350.2285,278.5362,81.5424,5.611e-06,4.62e-06,0.0,0 STARLINK-5925,1 55945U 23037AH  23144.64482888  .00000462  00000-0  56110-5 0  9995,2 55945  69.9974 350.2285 0003612 278.5362  81.5424 15.69918759 11189,6737.266,91.724,361.565,356.698,0.0
55945.0,STARLINK-5925,PAYLOAD,2023-05-25 14:24:49,15.69930038,0.0003769,69.9968,347.5419,271.4858,88.5906,1.529e-06,-2.9e-07,0.0,0 STARLINK-5925,1 55945U 23037AH  23145.60057467 -.00000029  00000-0  15290-5 0  9997,2 55945  69.9968 347.5419 0003769 271.4858  88.5906 15.69930038 10999,6737.234,91.724,361.638,356.56,0.0
55945.0,STARLINK-5925,PAYLOAD,2023-05-25 17:28:20,15.69923441,0.0003797,69.9967,347.1844,271.4195,88.6566,-2.3512e-09,-2.13e-06,0.0,0 STARLINK-5925,1 55945U 23037AH  23145.72801215 -.00000213  00000-0 -23512-8 0  9993,2 55945  69.9967 347.1844 0003797 271.4195  88.6566 15.69923441 11355,6737.253,91.724,361.676,356.56,0.0
55945.0,STARLINK-5925,PAYLOAD,2023-05-25 22:03:35,15.699252,0.0003898,69.9976,346.644,261.2449,98.8305,1.4138e-05,1.487e-05,0.0,0 STARLINK-5925,1 55945U 23037AH  23145.91915623  .00001487  00000-0  14138-4 0  9995,2 55945  69.9976 346.6440 0003898 261.2449  98.8305 15.69925200 11047,6737.248,91.724,361.739,356.487,0.0
55945.0,STARLINK-5925,PAYLOAD,2023-05-25 23:35:20,15.69929046,0.0003992,69.9957,346.4676,261.9267,98.1476,3.1893e-07,-1.75e-06,0.0,0 STARLINK-5925,1 55945U 23037AH  23145.98287431 -.00000175  00000-0  31893-6 0  9994,2 55945  69.9957 346.4676 0003992 261.9267  98.1476 15.69929046 11397,6737.237,91.724,361.792,356.412,0.0
55945.0,STARLINK-5925,PAYLOAD,2023-05-26 16:24:37,15.69921403,0.0003688,69.9969,344.4958,269.3748,90.7025,8.2289e-06,7.76e-06,0.0,0 STARLINK-5925,1 55945U 23037AH  23146.68376221  .00000776  00000-0  82289-5 0  9998,2 55945  69.9969 344.4958 0003688 269.3748  90.7025 15.69921403 11509,6737.259,91.724,361.609,356.639,0.0
55945.0,STARLINK-5925,PAYLOAD,2023-05-26 20:59:52,15.69924572,0.0003535,69.9968,343.9583,272.2536,87.8255,1.1291e-05,1.145e-05,0.0,0 STARLINK-5925,1 55945U 23037AH  23146.87491024  .00001145  00000-0  11291-4 0  9993,2 55945  69.9968 343.9583 0003535 272.2536  87.8255 15.69924572 11192,6737.25,91.724,361.496,356.733,0.0
55945.0,STARLINK-5925,PAYLOAD,2023-05-27 21:27:54,15.699238,0.0003427,69.9967,341.0908,268.4683,91.612,1.8267e-05,1.984e-05,0.0,0 STARLINK-5925,1 55945U 23037AH  23147.89437650  .00001984  00000-0  18267-4 0  9992,2 55945  69.9967 341.0908 0003427 268.4683  91.6120 15.69923800 11356,6737.252,91.724,361.426,356.808,0.0
55945.0,STARLINK-5925,PAYLOAD,2023-05-27 22:59:38,15.69934395,0.0003137,69.9968,340.9098,271.5648,88.5189,-1.079e-05,-1.51e-05,0.0,0 STARLINK-5925,1 55945U 23037AH  23147.95809023 -.00001510  00000-0 -10790-4 0  9996,2 55945  69.9968 340.9098 0003137 271.5648  88.5189 15.69934395 11709,6737.222,91.724,361.2,356.973,0.0
55945.0,STARLINK-5925,PAYLOAD,2023-05-28 15:48:55,15.69926585,0.000333,69.9976,338.9421,267.8217,92.2597,6.3789e-06,5.54e-06,0.0,0 STARLINK-5925,1 55945U 23037AH  23148.65897780  .00000554  00000-0  63789-5 0  9993,2 55945  69.9976 338.9421 0003330 267.8217  92.2597 15.69926585 11819,6737.244,91.724,361.353,356.866,0.0
55945.0,STARLINK-5925,PAYLOAD,2023-05-28 20:24:10,15.69930702,0.0003513,69.9966,338.4043,272.0254,88.0539,8.2001e-06,7.73e-06,0.0,0 STARLINK-5925,1 55945U 23037AH  23148.85012462  .00000773  00000-0  82001-5 0  9992,2 55945  69.9966 338.4043 0003513 272.0254  88.0539 15.69930702 11506,6737.232,91.724,361.464,356.73,0.0
55945.0,STARLINK-5925,PAYLOAD,2023-05-29 05:34:42,15.6991288,0.000341,69.9973,337.3287,271.8843,88.1962,-1.078e-06,-3.42e-06,0.0,0 STARLINK-5925,1 55945U 23037AH  23149.23243804 -.00000342  00000-0 -10780-5 0  9990,2 55945  69.9973 337.3287 0003410 271.8843  88.1962 15.69912880 11901,6737.283,91.725,361.446,356.851,0.0
55945.0,STARLINK-5925,PAYLOAD,2023-05-29 14:45:13,15.69918679,0.0003498,69.9972,336.2532,273.3673,86.7122,-2.1953e-06,-4.77e-06,0.0,0 STARLINK-5925,1 55945U 23037AH  23149.61473602 -.00000477  00000-0 -21953-5 0  9996,2 55945  69.9972 336.2532 0003498 273.3673  86.7122 15.69918679 11628,6737.267,91.724,361.488,356.775,0.0
55945.0,STARLINK-5925,PAYLOAD,2023-05-29 20:52:12,15.69932515,0.0003537,69.997,335.5389,264.8277,95.2515,8.6781e-06,8.31e-06,0.0,0 STARLINK-5925,1 55945U 23037AH  23149.86959208  .00000831  00000-0  86781-5 0  9996,2 55945  69.9970 335.5389 0003537 264.8277  95.2515 15.69932515 11667,6737.227,91.724,361.475,356.709,0.0
55945.0,STARLINK-5925,PAYLOAD,2023-05-29 22:23:58,15.69930289,0.0003541,69.9966,335.3602,261.4556,98.6239,5.2207e-06,4.15e-06,0.0,0 STARLINK-5925,1 55945U 23037AH  23149.93331113  .00000415  00000-0  52207-5 0  9997,2 55945  69.9966 335.3602 0003541 261.4556  98.6239 15.69930289 12012,6737.233,91.724,361.484,356.713,0.0
55945.0,STARLINK-5925,PAYLOAD,2023-05-30 06:02:44,15.69920803,0.0003593,69.9964,334.4632,271.7469,88.3315,7.772e-06,7.22e-06,0.0,0 STARLINK-5925,1 55945U 23037AH  23150.25190006  .00000722  00000-0  77720-5 0  9996,2 55945  69.9964 334.4632 0003593 271.7469  88.3315 15.69920803 12064,6737.261,91.724,361.546,356.705,0.0
55945.0,STARLINK-5925,PAYLOAD,2023-05-30 12:09:44,15.69926907,0.0003641,69.9965,333.7464,268.7635,91.3144,2.8621e-06,1.31e-06,0.0,0 STARLINK-5925,1 55945U 23037AH  23150.50676323  .00000131  00000-0  28621-5 0  9995,2 55945  69.9965 333.7464 0003641 268.7635  91.3144 15.69926907 11766,6737.243,91.724,361.561,356.655,0.0
